STARLINK-36879
1 67982U 26038X   26090.83335647 -.02223682  00000+0 -56548-1 0  9992
2 67982  97.2847 101.6883 0001968  67.9826  38.7702 15.43443700  6037
